#dP2023  7 10  0  0  0.00000000      96 __u+U IGS14 FIT  IAC
## 2270  86400.00000000   900.00000000 60135 0.0000000000000
+  118   C06C07C08C09C10C11C12C13C14C16C19C20C21C22C23C24C25
+        C26C27C28C29C30C32C33C34C35C36C37C38C39C40C41C42C43
+        C44C45C46E02E03E04E05E07E08E09E10E11E12E13E14E15E18
+        E19E21E24E25E26E27E30E31E34E36G01G02G03G04G05G06G07
+        G08G09G10G11G12G13G14G15G16G17G18G19G20G21G22G23G24
+        G25G26G27G28G29G30G31G32J02J03J04R01R02R03R04R05R07
+        R08R09R11R12R13R14R15R16R17R18R19R20R21R22R24R25  0
++         7  8  7  7  8  7  7  7  7  7  6  6  6  6  6  6  6
++         6  6  5  6  6  6  6  6  6  6  6  6  6  7  6  6  6
++         6  6  6  4  5  4  5  5  5  4  4  4  4  4  4  4  4
++         4  4  4  4  4  4  4  4  4  4  3  3  3  3  4  4  4
++         4  4  3  4  3  4  3  4  4  5  4  4  4  3  4  3  3
++         3  4  4  4  4  4  3  4  9  9  9  8  7  7  7  6  6
++         7  7  6  7  8  7  7  7  7  7  8  8  6  7  7  9  0
%c M  cc GPS ccc cccc cccc cccc cccc ccccc ccccc ccccc ccccc
%c cc cc ccc ccc cccc cccc cccc cccc ccccc ccccc ccccc ccccc
%f  1.2500000  1.025000000  0.00000000000  0.000000000000000
%f  0.0000000  0.000000000  0.00000000000  0.000000000000000
%i    0    0    0    0      0      0      0      0         0
%i    0    0    0    0      0      0      0      0         0
/* INFORMATION & ANALYSIS CENTER (IAC)            FINAL DATA
/* S/V CLOCKS ARE ALIGNED TO GNSS TIME                      
/* G:C1WC2W R:C1PC2P E:C1XC5X C:C2IC6I J:C1CC2S             
/* PCV:IGS20_2247 OL/AL:FES2004  NONE     YN ORB:CoN CLK:CoN
*  2023 07 10 12 15  0.00000000
PC06  -2314.826970  33627.324575  25532.104091     27.758097
PC07 -12290.024525  27110.041188 -29836.199303   -301.074012
PC08 -15508.613640  38173.848098   8377.646126    432.933772
PC09   4777.008753  38291.129106  18066.734060    433.503606
PC10  -6223.225325  27454.068685 -31158.203909   -110.335665
PC11  15663.191254  -4818.990210  22644.468755    718.689764
PC12  21873.493304  12772.196404  11727.878275    777.072867
PC13  -9731.432246  38324.765209  14355.246150    312.763647
PC14  25148.956601 -10267.944604  -6234.201647    542.169644
PC16  -2348.051501  33177.289727  26338.513713     11.449562
PC19 -18836.966593  14571.459169  14590.842802   -937.064085
PC20 -27360.822925   5420.773100  -1361.223430    445.699901
PC21  19951.161675   7847.734931  17859.656511   -932.991242
PC22    951.891478  15814.053392  22970.334142   -402.662820
PC23   2294.255426 -26708.630455   7766.937915   -949.526314
PC24  17461.328291  -4497.756409 -21307.730128    157.097364
PC25  13043.621455 -23042.203726  -8848.494706    164.978594
PC26  11598.826731  14397.592366 -20904.495877   -146.741771
PC27 -20556.202448 -18471.791038  -3869.363599    167.526406
PC28  -9721.113153 -23163.352993  12161.342757    124.808976
PC29  -8189.057657  14184.712452 -22602.282695    145.363426
PC30 -21025.834409  -3309.599357 -18049.632364     -2.068526
PC32 -19985.095340  -7720.868174 -17878.688153   -540.382316
PC33  18801.636247 -14657.934056 -14485.464436   -910.647997
PC34  20530.597181   2048.430473  18781.735072    211.681356
PC35  10157.018866  22808.440881 -12513.662897    591.377819
PC36 -13941.091044  22214.368112   9558.018886   -337.012052
PC37 -10665.730454 -15674.554170  20501.947391   -791.831221
PC38 -18982.968400  37539.591148    217.677878     90.650440
PC39  -6387.645651  28669.241397  30379.716567     -3.744821
PC40 -19080.954993  20582.245733 -31530.571486    -28.953725
PC41   -249.723574 -15959.253643 -22839.239007   -905.267672
PC42  27386.266629  -4486.452953   2816.927641   -617.490803
PC43   9055.360804 -13574.124107  22623.528189     30.054922
PC44  21177.756852  17829.256845   3612.706620    164.282218
PC45  -2009.678546  26571.924792  -8245.110157     -0.079007
PC46 -17472.911444   6045.624284  20896.972362    -67.822077
PE02 -21386.851042  20337.343880  -2205.339130     48.941377
PE03 -15919.101913  11106.331551  22351.956451    -34.645523
PE04  -5231.750147 -18490.514311 -22506.114778   -163.543831
PE05 -28024.189156  -2883.879277   9099.297370     -1.725842
PE07  23445.393302  15244.936984   9687.835709    -58.912848
PE08   4857.126922  18310.650249  22743.558038   -112.203681
PE09 -23407.517430 -15219.366334  -9851.441415    -79.673191
PE10  -9169.780862 -27584.572702  -5620.744551   -547.465829
PE11 -14107.778577 -21181.026430 -15126.237237   2448.821631
PE12  -3145.952911 -29170.048940   3856.848990   -612.745632
PE13  13810.459185  21776.147877  14532.332764    -19.320539
PE14 -30403.716005  -6177.016513  -8024.504003    278.187576
PE15   2957.695654  29146.090420  -4246.531322    -35.990458
PE18  22490.813695   7936.397948   2725.180105    279.602290
PE19  18252.463061  -9316.332160 -21349.035820  -2108.483719
PE21  24435.344320  -7589.817522 -14875.999779   -539.896318
PE24 -12961.398678 -10932.055424  24252.073048   -201.678725
PE25 -24367.930725   7276.525175  15157.406700   -608.081269
PE26  16495.682633    875.028839  24557.249590    158.847193
PE27  13542.796528  10288.911808 -24219.904968    -95.673408
PE30  -5727.140706  22066.164595 -18881.124411   -324.041713
PE31   5197.261353 -21918.405693  19212.078725     -0.088923
PE34  -9450.285835  19380.502527 -20287.155206    -55.325099
PE36 -16437.934139  -1751.574185 -24559.248982    -83.828913
PG01  13787.060797  -4774.335117  21827.004638    173.741225
PG02  15842.587283   1491.922832  21790.250613   -577.590257
PG03  22457.842859 -11811.363876   7497.085586   -238.300869
PG04  21791.379314  -2248.165966 -15087.372408     91.744639
PG05 -18219.968660  -1708.747093 -19470.645529   -134.351897
PG06  -5222.640303 -25915.842640  -1895.583627    579.176323
PG07   7390.867948 -20267.203239 -14700.077145    129.133041
PG08  25778.467892   5606.254163   4491.470965   -131.467320
PG09  13802.392153 -10308.533334 -20300.537580   -115.670079
PG10  -4786.594722  19258.868483  17671.356769    -44.602843
PG11 -12617.803922 -17706.305637 -15274.613582   -270.054558
PG12 -23135.293923   7789.180853  10092.164812   -398.967739
PG13 -22833.957287 -13721.757309  -1578.613700    545.243035
PG14   8232.523813 -20080.703489  15220.113832    117.783685
PG15 -26119.633177  -2435.606127   4486.799865     56.695420
PG16  15462.883975   6963.010122 -20852.340122   -482.392416
PG17  -3229.780438 -16865.027648  20663.913142    720.649826
PG18  -5787.041257  22283.103196 -13099.194639   -340.180832
PG19 -11273.549064 -17923.920290  16013.447996    341.968092
PG20 -11323.652957 -10517.930649 -21567.218205    423.439735
PG21  16423.803944   5423.209279  20909.422019    152.304637
PG22  13998.768425  17811.031652  14444.737393    510.670510
PG23 -15415.435672  20151.499953   7575.068235     41.740274
PG24 -15927.402643    248.285472  20927.709087   -253.175077
PG25 -19732.888536  17544.171906  -1070.572893    455.222182
PG26   6079.632856  15426.729247 -20808.599973    236.877007
PG27  22351.101636  13271.014585  -6676.545999     -0.238210
PG28   5126.399378  26063.072477     74.045484 999999.999999
PG29 -15749.502528   7613.758292 -20069.107492   -605.174521
PG30   1097.458644 -25484.920912  -6763.872848   -505.296867
PG31  10925.117958  21364.442020 -11080.960883   -219.797507
PG32   6983.453631  17038.349931  19394.903520   -518.213565
PJ02 -36188.898500  21533.088945   1534.378172     -1.245381
PJ03 -19203.576108  24504.579960 -23767.379446     -0.019919
PJ04 -27479.958397  30716.734649  15500.427733     96.598445
PR01  10479.654276 -10643.481013 -20671.954245     61.107846
PR02  -9312.663847  -9764.561743 -21588.516044    -22.616526
PR03 -23288.443034  -3506.888865  -9682.397912     81.275915
PR04 -24068.155135   4298.701304   7284.078185    194.468625
PR05 -11856.118124   9859.712092  20323.737401    115.549057
PR07  23684.047909   3203.937793   9021.319575     59.862008
PR08  24015.625810  -4506.933644  -7314.366576    -71.600220
PR09    361.582650  18856.708101 -17195.136788    130.403358
PR11  14961.733864 -12507.792121 -16417.388324   -100.829363
PR12  10945.734269 -23003.533512   1448.412013     28.939624
PR13   1295.471257 -19864.660999  15940.126682    -36.933635
PR14 -10617.495663  -3667.416302  22919.828670     24.933053
PR15 -15229.306755  13430.076623  15470.161305     87.947611
PR16 -10968.048975  23027.195008  -1059.124946     16.509254
PR17 -16305.615010 -14659.791108 -13070.682619     -1.453359
PR18 -11783.549982    282.326072 -22606.382046     90.859269
PR19  -2780.018795  13979.936668 -21158.256309   -239.317796
PR20  10526.486217  22712.283206  -4997.298194    -96.309385
PR21  16100.788044  13786.627762  14160.467715    -21.640685
PR22  11723.747401  -1020.728389  22654.103323     92.660393
PR24 -11544.405163 -22339.357553   4357.441464    -15.877873
PR25  15761.659786  15313.394723  12932.593248 999999.999999
EOF
